ORBCOMM-X [-]           
1 21576U 91050C   23301.89637078  .00000579  00000+0  18899-3 0  9991
2 21576  98.4213   7.5567 0003755 171.8251 188.3001 14.42229022695992
ORBCOMM FM02 [-]        
1 23546U 95017B   23301.95042882  .00006634  00000+0  96023-3 0  9990
2 23546  69.9676 125.6954 0005716 157.2279 202.9123 14.76521503523923
ORBCOMM FM08 [-]        
1 25112U 97084A   23301.85047324  .00002279  00000+0  73930-3 0  9995
2 25112  45.0161 344.7377 0005691 126.3135 233.8241 14.41459162355066
ORBCOMM FM11 [+]        
1 25114U 97084C   23301.85088360  .00002387  00000+0  77507-3 0  9996
2 25114  45.0158 346.3835 0003639  88.0229 272.1038 14.41286734355185
ORBCOMM FM09 [-]        
1 25116U 97084E   23302.16084444  .00002463  00000+0  79887-3 0  9990
2 25116  45.0168 345.1856 0003860  66.4827 293.6428 14.41251623355267
